#aV2023  8  4  0  0  0.00000000     288 DD+AD WGS84 FIT  NGA
## 2273 432000.00000000   300.00000000 60160 0.0000000000000
+   32     1  2  3  4  5  6  7  8  9 10 11 12 13 14 15 16 17
+         18 19 20 21 22 23 24 25 26 27 28 29 30 31 32  0  0
+          0  0  0  0  0  0  0  0  0  0  0  0  0  0  0  0  0
+          0  0  0  0  0  0  0  0  0  0  0  0  0  0  0  0  0
+          0  0  0  0  0  0  0  0  0  0  0  0  0  0  0  0  0
++         2  2  2  2  2  2  2  2  2  2  2  2  2  2  2  2  2
++         2  2  2  2  2  2  2  2  2  2  2  2  2  2  2  0  0
++         0  0  0  0  0  0  0  0  0  0  0  0  0  0  0  0  0
++         0  0  0  0  0  0  0  0  0  0  0  0  0  0  0  0  0
++         0  0  0  0  0  0  0  0  0  0  0  0  0  0  0  0  0
%c cc cc ccc ccc cccc cccc cccc cccc ccccc ccccc ccccc ccccc
%c cc cc ccc ccc cccc cccc cccc cccc ccccc ccccc ccccc ccccc
%f  0.0000000  0.000000000  0.00000000000  0.000000000000000
%f  0.0000000  0.000000000  0.00000000000  0.000000000000000
%i    0    0    0    0      0      0      0      0         0
%i    0    0    0    0      0      0      0      0         0
/*      NGA, ST. LOUIS,MO.                                  
/*   EPHEMERIS COMPUTED FROM 2 DAYS OF DATA                 
/*   EPOCHA v8 SMOOTHER                                     
/*   G2139 IERS2010 SATIGS SATAPC                           
*  2023  8  4 22 15  0.00000000
P  1 -13472.030914   7286.608491  21301.118972    169.878903                    
V  1  -2725.441590 -27721.583145   7963.544821     -0.015541                    
P  2 -15417.804854    384.691603  22135.965327   -568.954876                    
V  2  -4546.818837 -26491.374530  -2612.546154      0.040468                    
P  3 -22946.929216  12325.908669   4721.225556   -202.263794                    
V  3   3738.590312  -5427.734842  31497.831342      0.174484                    
P  4 -20189.131551   3096.810194 -17031.512676    115.939640                    
V  4 -18556.914103 -11162.019153  19838.871163      0.112618                    
P  5  19893.238224     89.989392 -17833.563291   -137.554940                    
V  5 -16650.697123  14789.882620 -18586.219096     -0.014643                    
P  6   5458.964208  25429.252007  -5078.249500    570.447663                    
V  6  -1396.362921   6661.060785  31573.354619     -0.046454                    
P  7  -6758.162945  22079.566496 -12216.269009    105.096989                    
V  7  -4552.447136 -16115.378573 -26108.690218     -0.109186                    
P  8 -25173.932115  -4955.730757   7548.224823   -135.595676                    
V  8  -7866.927059  -5988.775346 -29485.132337     -0.018540                    
P  9 -11937.466842  11028.464109 -21092.007087    -94.917288                    
V  9 -24143.938450 -11205.884981   7789.732239      0.096425                    
P 10   2883.747135 -18000.978115  19375.523996    -47.949323                    
V 10  20490.368292 -13084.385981 -15655.633561     -0.015599                    
P 11  12473.150125  16158.549690 -17007.346352   -306.267994                    
V 11   -722.188904  21636.569605  19970.044700     -0.169560                    
P 12  23897.341092  -8253.075003   7732.320343   -409.034030                    
V 12  -7348.302357   7565.423991  29803.421312     -0.045379                    
P 13  22928.269566  13543.098499   1408.488701    556.038404                    
V 13    425.600272   3045.883853 -31763.240395      0.048201                    
P 14  -6520.122240  19130.888608  17167.721439    144.008913                    
V 14 -19347.611088  10385.155328 -19104.427983      0.118008                    
P 15  25392.974368   1689.357765   7563.254932     64.559038                    
V 15   8834.302672   6101.159225 -28953.018788      0.036037                    
P 16 -17279.796619  -5806.815695 -19774.811145   -472.390645                    
V 16  20537.814683 -13017.357222 -13904.661348      0.047924                    
P 17   4820.268923  17709.450047  19589.936284    722.238755                    
V 17 -21619.995739 -10375.260448  15138.783951      0.005964                    
P 18   5434.407472 -23662.030530 -10566.705569   -370.929191                    
V 18   3228.284399  13251.893562 -28181.947285     -0.136537                    
P 19  12805.468226  18677.300738  13931.329920    353.265940                    
V 19 -16258.360005  -7676.472107  24539.506729      0.051445                    
P 20  12784.898119   8935.242163 -21447.974734    418.964621                    
V 20 -19051.600565  19665.103379  -3344.203265     -0.020234                    
P 21 -15952.447397  -3423.794009  21626.349248    151.232714                    
V 21  -4527.568580 -25685.147331  -6715.598119     -0.005586                    
P 22 -15368.215935 -18356.738897  12121.724409    522.533991                    
V 22  13744.782477   5408.262269  26465.428473      0.052321                    
P 23  14445.353234 -19641.659130  10333.723569     51.176166                    
V 23  11847.058857  -6129.501758 -28381.338267      0.045192                    
P 24  15405.199030  -2585.958491  21113.839313   -279.757926                    
V 24   5207.675820  27291.170112    -31.452223     -0.117526                    
P 25  19262.797053 -17668.478468  -4136.640184    460.277040                    
V 25   5874.572899   -280.264721  31150.732303      0.022429                    
P 26  -8184.287462 -13718.947956 -21315.361927    234.153592                    
V 26  21139.192608 -16686.468133   2984.073168     -0.013647                    
P 27 -22972.916239 -13309.279015  -3781.959332    -16.154849                    
V 27   4954.207294   -186.831312 -31147.670799     -0.069072                    
P 28  -5449.490897 -25820.270423  -3047.291352     78.778445                    
V 28   2262.418024  -4165.316732  31453.666096     -0.027445                    
P 29  13340.105654  -9000.189851 -21200.038696   -607.116674                    
V 29  23087.724439  13492.723812   8720.886950     -0.007704                    
P 30   -436.402518  26148.038171  -3625.530792   -499.029944                    
V 30  -4208.225965  -4459.782593 -30892.421550      0.029777                    
P 31 -10854.536355 -20156.062857 -13275.069448   -221.285472                    
V 31   1456.549715 -16891.391041  25206.584628     -0.006361                    
P 32  -9478.070383 -17756.270099  17614.212963   -534.573842                    
V 32  20627.969269   7601.867763  18762.989669     -0.071114                    
EOF
